OBJECT_NAME,OBJECT_ID,EPOCH,MEAN_MOTION,ECCENTRICITY,INCLINATION,RA_OF_ASC_NODE,ARG_OF_PERICENTER,MEAN_ANOMALY,EPHEMERIS_TYPE,CLASSIFICATION_TYPE,NORAD_CAT_ID,ELEMENT_SET_NO,REV_AT_EPOCH,BSTAR,MEAN_MOTION_DOT,MEAN_MOTION_DDOT
TIANMU-1 20,2023-208B,2026-07-20T06:54:23.869728,15.33211127,.0006818,97.4469,318.4421,193.1792,166.9273,0,U,58661,999,14249,.14781661E-3,.4665E-4,0
TIANMU-1 21,2023-208C,2026-07-20T06:58:20.863200,15.35608166,.00071962,97.4530,321.2712,185.6912,174.4251,0,U,58662,999,14264,.16703698E-3,.5703E-4,0
TIANMU-1 22,2023-208D,2026-07-20T06:27:20.786112,15.31468880,.0003231,97.4522,317.6606,197.4338,162.6793,0,U,58663,999,14239,.14138081E-3,.4217E-4,0
TIANMU-1 15,2024-004A,2026-07-20T06:12:43.082208,15.26944114,.00064789,97.4676,27.4501,207.9270,152.1622,0,U,58700,999,14082,.12017467E-3,.3105E-4,0
TIANMU-1 16,2024-004B,2026-07-20T07:31:24.951072,15.27047491,.00047665,97.4625,26.7187,222.5448,137.5422,0,U,58701,999,14083,.11450304E-3,.2964E-4,0
TIANMU-1 17,2024-004C,2026-07-20T07:10:31.244736,15.27045134,.00041936,97.4652,27.2011,227.7917,132.2966,0,U,58702,999,14082,.1150867E-3,.2979E-4,0
TIANMU-1 18,2024-004D,2026-07-20T06:36:29.917728,15.26959723,.00042076,97.4669,27.4407,203.1369,156.9681,0,U,58703,999,14082,.11838766E-3,.3059E-4,0
INSAT-3DS,2024-033A,2026-07-20T03:14:38.535072,1.00270799,.0001271,0.0776,263.9349,220.5597,304.1325,0,U,58990,999,4739,0,-.158E-5,0
METEOR-M2 4,2024-039A,2026-07-20T07:32:51.461664,14.22432435,.00082382,98.7029,160.1996,76.1086,284.1008,0,U,59051,999,12397,.15449232E-4,-.9E-7,0
GOES 19,2024-119A,2026-07-20T05:55:43.314240,1.00272617,.00002929,0.0194,138.5551,50.8951,122.3056,0,U,60133,999,729,0,-.25E-5,0
MTG-S1,2025-143A,2026-07-20T06:17:03.768288,1.00275140,.00032544,0.5817,346.3046,258.0455,147.5965,0,U,64723,999,375,0,-.9E-7,0
METOP-SGA1,2025-172A,2026-07-14T18:20:46.629312,14.19819127,.00070989,98.6631,254.9090,333.3306,26.7504,0,U,65159,999,4770,.2916334E-4,.19E-6,0
FENGYUN 3H,2025-219A,2026-07-19T19:23:12.855552,14.19925188,.00010493,98.6770,140.9437,61.7386,298.3897,0,U,65815,999,4201,.23729322E-4,.7E-7,0
