TIANMU-1 20             
1 58661U 23208B   26201.28777627  .00004665  00000+0  14782-3 0  9993
2 58661  97.4469 318.4421 0006818 193.1792 166.9273 15.33211127142495
TIANMU-1 21             
1 58662U 23208C   26201.29051925  .00005703  00000+0  16704-3 0  9991
2 58662  97.4530 321.2712 0007196 185.6912 174.4251 15.35608166142642
TIANMU-1 22             
1 58663U 23208D   26201.26899058  .00004217  00000+0  14138-3 0  9994
2 58663  97.4522 317.6606 0003231 197.4338 162.6793 15.31468880142399
TIANMU-1 15             
1 58700U 24004A   26201.25883197  .00003105  00000+0  12017-3 0  9996
2 58700  97.4676  27.4501 0006478 207.9270 152.1622 15.26944114140823
TIANMU-1 16             
1 58701U 24004B   26201.31348323  .00002964  00000+0  11450-3 0  9993
2 58701  97.4625  26.7187 0004766 222.5448 137.5422 15.27047491140837
TIANMU-1 17             
1 58702U 24004C   26201.29897274  .00002979  00000+0  11509-3 0  9996
2 58702  97.4652  27.2011 0004193 227.7917 132.2966 15.27045134140828
TIANMU-1 18             
1 58703U 24004D   26201.27534627  .00003059  00000+0  11839-3 0  9991
2 58703  97.4669  27.4407 0004207 203.1369 156.9681 15.26959723140827
INSAT-3DS               
1 58990U 24033A   26201.13516823 -.00000158  00000+0  00000+0 0  9996
2 58990   0.0776 263.9349 0001271 220.5597 304.1325  1.00270799 47396
METEOR-M2 4             
1 59051U 24039A   26201.31448451 -.00000009  00000+0  15449-4 0  9995
2 59051  98.7029 160.1996 0008238  76.1086 284.1008 14.22432435123973
GOES 19                 
1 60133U 24119A   26201.24702910 -.00000250  00000+0  00000+0 0  9992
2 60133   0.0194 138.5551 0000292  50.8951 122.3056  1.00272617  7291
MTG-S1                  
1 64723U 25143A   26201.26184917 -.00000009  00000+0  00000+0 0  9994
2 64723   0.5817 346.3046 0003254 258.0455 147.5965  1.00275140  3756
METOP-SGA1              
1 65159U 25172A   26195.76442858  .00000019  00000+0  29163-4 0  9994
2 65159  98.6631 254.9090 0007098 333.3306  26.7504 14.19819127 47700
FENGYUN 3H              
1 65815U 25219A   26200.80778768  .00000007  00000+0  23729-4 0  9998
2 65815  98.6770 140.9437 0001049  61.7386 298.3897 14.19925188 42018
